GLOBALSTAR M094         
1 39074U 13005C   24304.30549087 -.00000043  00000+0  33945-3 0  9995
2 39074  51.9934 162.0391 0001165  92.5965 267.5035 12.62264658543346
GLOBALSTAR M096         
1 39075U 13005D   24304.47701331 -.00000046  00000+0  32388-3 0  9999
2 39075  52.0064 209.8514 0001066  78.3832 281.7154 12.62263687542288
GLOBALSTAR M078         
1 39076U 13005E   24304.52937514 -.00000093  00000+0  61814-4 0  9999
2 39076  51.9874 294.5119 0001340  42.3510 317.7460 12.62276792540916
GLOBALSTAR M095         
1 39077U 13005F   24304.31871374 -.00000078  00000+0  14607-3 0  9998
2 39077  51.9800 292.4675 0001032  65.4807 294.6167 12.62267099540741
GLOBALSTAR M087         
1 52888U 22064A   24304.50574451 -.00000068  00000+0  11516-3 0  9990
2 52888  51.9749  96.5229 0009067 353.0281   7.0492 13.37591582115637
